IRIDIUM 36 [-]          
1 24967U 97056C   23349.69354218  .00000384  00000+0  12416-3 0  9995
2 24967  86.3976  43.7104 0002136  89.5137 270.6305 14.36546593373308
IRIDIUM 39 [-]          
1 25042U 97069D   23349.81506841  .00000702  00000+0  18494-3 0  9995
2 25042  86.3918  86.4499 0017563 345.8282  14.2426 14.47563259369704
IRIDIUM 38 [-]          
1 25043U 97069E   23349.82909040  .00000489  00000+0  15847-3 0  9996
2 25043  86.3958 104.1335 0003962 106.6787 253.4845 14.37008975367299
IRIDIUM 42 [-]          
1 25077U 97077A   23349.80338777  .00000419  00000+0  13931-3 0  9998
2 25077  86.3963 109.6457 0002701  98.2151 261.9352 14.35308218362369
IRIDIUM 44 [-]          
1 25078U 97077B   23349.83615436  .00000530  00000+0  16512-3 0  9994
2 25078  86.3956  93.0271 0003428  66.3909 293.7649 14.39117657364695
IRIDIUM 45 [-]          
1 25104U 97082A   23349.39066726  .00005478  00000+0  34140-3 0  9996
2 25104  86.3753 308.6154 0174264 187.9512 171.8953 14.97455625369156
IRIDIUM 24 [-]          
1 25105U 97082B   23349.45661721  .00000558  00000+0  16762-3 0  9994
2 25105  86.3898 313.0955 0013825  92.1442 268.1341 14.40877643364028
IRIDIUM 51 [-]          
1 25262U 98018A   23349.41198381  .00007021  00000+0  37237-3 0  9993
2 25262  86.3938 318.9675 0162315 140.2192 221.1079 15.04383454363575
